start=new Date('2023-06-25T00:00:00.000Z').valueOf();
sats=[{"MEAN_MOTION_DOT":"0.00000373","CLASSIFICATION_TYPE":"U","MEAN_MOTION":"15.08840330","RA_OF_ASC_NODE":"181.1794","TLE_LINE2":"2 52460  53.2151 181.1794 0001032  74.7543 285.3563 15.08840330 63028","OBJECT_TYPE":"PAYLOAD","FILE":"3941341","MEAN_ELEMENT_THEORY":"SGP4","PERIAPSIS":"539.030","EPOCH":"2023-06-24T04:11:15.672480","RCS_SIZE":"LARGE","ARG_OF_PERICENTER":"74.7543","ECCENTRICITY":"0.00010320","MEAN_MOTION_DDOT":"0.0000000000000","TLE_LINE1":"1 52460U 22049K   23175.17448695  .00000373  00000-0  41532-4 0  9998","TIME_SYSTEM":"UTC","DECAY_DATE":null,"INCLINATION":"53.2151","BSTAR":"0.00004153200000","REF_FRAME":"TEME","OBJECT_NAME":"STARLINK-3865","SEMIMAJOR_AXIS":"6917.879","COUNTRY_CODE":"US","APOAPSIS":"540.458","PERIOD":"95.438","ELEMENT_SET_NO":"999","EPHEMERIS_TYPE":"0","NORAD_CAT_ID":"52460","CENTER_NAME":"EARTH","SITE":"AFETR","GP_ID":"234518543","LAUNCH_DATE":"2022-05-06","REV_AT_EPOCH":"6302","OBJECT_ID":"2022-049K","MEAN_ANOMALY":"285.3563"},{"GP_ID":"234518256","SITE":"AFETR","NORAD_CAT_ID":"52461","CENTER_NAME":"EARTH","EPHEMERIS_TYPE":"0","MEAN_ANOMALY":"271.9376","OBJECT_ID":"2022-049L","REV_AT_EPOCH":"6316","LAUNCH_DATE":"2022-05-06","SEMIMAJOR_AXIS":"6917.882","OBJECT_NAME":"STARLINK-3900","PERIOD":"95.438","ELEMENT_SET_NO":"999","APOAPSIS":"540.398","COUNTRY_CODE":"US","BSTAR":"0.00005020100000","INCLINATION":"53.2155","DECAY_DATE":null,"TIME_SYSTEM":"UTC","MEAN_MOTION_DDOT":"0.0000000000000","TLE_LINE1":"1 52461U 22049L   23175.17909452  .00000511  00000-0  50201-4 0  9999","ECCENTRICITY":"0.00009410","REF_FRAME":"TEME","RA_OF_ASC_NODE":"171.2069","TLE_LINE2":"2 52461  53.2155 171.2069 0000941  88.1724 271.9376 15.08839582 63161","MEAN_MOTION":"15.08839582","CLASSIFICATION_TYPE":"U","MEAN_MOTION_DOT":"0.00000511","ARG_OF_PERICENTER":"88.1724","RCS_SIZE":"LARGE","PERIAPSIS":"539.096","EPOCH":"2023-06-24T04:17:53.766528","FILE":"3941341","MEAN_ELEMENT_THEORY":"SGP4","OBJECT_TYPE":"PAYLOAD"},{"ECCENTRICITY":"0.00009950","MEAN_MOTION_DDOT":"0.0000000000000","TLE_LINE1":"1 52462U 22049M   23175.17545654 -.00000517  00000-0 -14427-4 0  9998","DECAY_DATE":null,"TIME_SYSTEM":"UTC","INCLINATION":"53.2157","BSTAR":"-0.00001442700000","REF_FRAME":"TEME","MEAN_MOTION_DOT":"-0.00000517","CLASSIFICATION_TYPE":"U","MEAN_MOTION":"15.08834251","RA_OF_ASC_NODE":"181.2337","TLE_LINE2":"2 52462  53.2157 181.2337 0000995  80.6184 279.4920 15.08834251 63020","OBJECT_TYPE":"PAYLOAD","PERIAPSIS":"539.075","EPOCH":"2023-06-24T04:12:39.445056","MEAN_ELEMENT_THEORY":"SGP4","FILE":"3941341","RCS_SIZE":"LARGE","ARG_OF_PERICENTER":"80.6184","EPHEMERIS_TYPE":"0","SITE":"AFETR","CENTER_NAME":"EARTH","NORAD_CAT_ID":"52462","GP_ID":"234518545","REV_AT_EPOCH":"6302","LAUNCH_DATE":"2022-05-06","OBJECT_ID":"2022-049M","MEAN_ANOMALY":"279.4920","OBJECT_NAME":"STARLINK-3903","SEMIMAJOR_AXIS":"6917.898","COUNTRY_CODE":"US","APOAPSIS":"540.451","ELEMENT_SET_NO":"999","PERIOD":"95.438"},{"PERIOD":"95.438","ELEMENT_SET_NO":"999","COUNTRY_CODE":"US","APOAPSIS":"540.547","SEMIMAJOR_AXIS":"6917.884","OBJECT_NAME":"STARLINK-3885","MEAN_ANOMALY":"277.7921","REV_AT_EPOCH":"6324","LAUNCH_DATE":"2022-05-06","OBJECT_ID":"2022-049N","GP_ID":"234532036","EPHEMERIS_TYPE":"0","NORAD_CAT_ID":"52463","CENTER_NAME":"EARTH","SITE":"AFETR","RCS_SIZE":"LARGE","ARG_OF_PERICENTER":"82.3202","OBJECT_TYPE":"PAYLOAD","FILE":"3941942","MEAN_ELEMENT_THEORY":"SGP4","PERIAPSIS":"538.951","EPOCH":"2023-06-24T16:55:41.006208","MEAN_MOTION":"15.08838842","TLE_LINE2":"2 52463  53.2151 168.8435 0001153  82.3202 277.7921 15.08838842 63248","RA_OF_ASC_NODE":"168.8435","MEAN_MOTION_DOT":"0.00000670","CLASSIFICATION_TYPE":"U","REF_FRAME":"TEME","TIME_SYSTEM":"UTC","DECAY_DATE":null,"BSTAR":"0.00006019700000","INCLINATION":"53.2151","ECCENTRICITY":"0.00011530","MEAN_MOTION_DDOT":"0.0000000000000","TLE_LINE1":"1 52463U 22049N   23175.70533572  .00000670  00000-0  60197-4 0  9997"},{"OBJECT_ID":"2022-049P","REV_AT_EPOCH":"6295","LAUNCH_DATE":"2022-05-06","MEAN_ANOMALY":"274.7907","CENTER_NAME":"EARTH","NORAD_CAT_ID":"52464","SITE":"AFETR","EPHEMERIS_TYPE":"0","GP_ID":"234511845","APOAPSIS":"540.497","COUNTRY_CODE":"US","ELEMENT_SET_NO":"999","PERIOD":"95.438","OBJECT_NAME":"STARLINK-3904","SEMIMAJOR_AXIS":"6917.903","REF_FRAME":"TEME","MEAN_MOTION_DDOT":"0.0000000000000","TLE_LINE1":"1 52464U 22049P   23174.71449942 -.00000898  00000-0 -38338-4 0  9991","ECCENTRICITY":"0.00010540","INCLINATION":"53.2150","BSTAR":"-0.00003833800000","TIME_SYSTEM":"UTC","DECAY_DATE":null,"MEAN_ELEMENT_THEORY":"SGP4","FILE":"3941065","EPOCH":"2023-06-23T17:08:52.749888","PERIAPSIS":"539.039","OBJECT_TYPE":"PAYLOAD","ARG_OF_PERICENTER":"85.3206","RCS_SIZE":"LARGE","CLASSIFICATION_TYPE":"U","MEAN_MOTION_DOT":"-0.00000898","TLE_LINE2":"2 52464  53.2150 183.2914 0001054  85.3206 274.7907 15.08832699 62950","RA_OF_ASC_NODE":"183.2914","MEAN_MOTION":"15.08832699"},{"REF_FRAME":"TEME","BSTAR":"-0.00000120220000","INCLINATION":"53.2157","DECAY_DATE":null,"TIME_SYSTEM":"UTC","MEAN_MOTION_DDOT":"0.0000000000000","TLE_LINE1":"1 52465U 22049Q   23174.37685388 -.00000307  00000-0 -12022-5 0  9998","ECCENTRICITY":"0.00010740","ARG_OF_PERICENTER":"87.3715","RCS_SIZE":"LARGE","EPOCH":"2023-06-23T09:02:40.175232","PERIAPSIS":"538.997","MEAN_ELEMENT_THEORY":"SGP4","FILE":"3940769","OBJECT_TYPE":"PAYLOAD","TLE_LINE2":"2 52465  53.2157 174.8067 0001074  87.3715 272.7400 15.08841901 63045","RA_OF_ASC_NODE":"174.8067","MEAN_MOTION":"15.08841901","CLASSIFICATION_TYPE":"U","MEAN_MOTION_DOT":"-0.00000307","MEAN_ANOMALY":"272.7400","OBJECT_ID":"2022-049Q","LAUNCH_DATE":"2022-05-06","REV_AT_EPOCH":"6304","GP_ID":"234504190","SITE":"AFETR","NORAD_CAT_ID":"52465","CENTER_NAME":"EARTH","EPHEMERIS_TYPE":"0","ELEMENT_SET_NO":"999","PERIOD":"95.437","APOAPSIS":"540.483","COUNTRY_CODE":"US","SEMIMAJOR_AXIS":"6917.875","OBJECT_NAME":"STARLINK-3863"},{"PERIAPSIS":"539.115","EPOCH":"2023-06-24T04:23:16.980288","MEAN_ELEMENT_THEORY":"SGP4","FILE":"3941341","OBJECT_TYPE":"PAYLOAD","ARG_OF_PERICENTER":"70.0027","RCS_SIZE":"LARGE","CLASSIFICATION_TYPE":"U","MEAN_MOTION_DOT":"0.00000263","TLE_LINE2":"2 52466  53.2158 181.3539 0000944  70.0027 290.1067 15.08832473 63029","RA_OF_ASC_NODE":"181.3539","MEAN_MOTION":"15.08832473","REF_FRAME":"TEME","MEAN_MOTION_DDOT":"0.0000000000000","TLE_LINE1":"1 52466U 22049R   23175.18283542  .00000263  00000-0  34637-4 0  9999","ECCENTRICITY":"0.00009440","BSTAR":"0.00003463700000","INCLINATION":"53.2158","DECAY_DATE":null,"TIME_SYSTEM":"UTC","APOAPSIS":"540.421","COUNTRY_CODE":"US","ELEMENT_SET_NO":"999","PERIOD":"95.438","OBJECT_NAME":"STARLINK-3840","SEMIMAJOR_AXIS":"6917.903","OBJECT_ID":"2022-049R","LAUNCH_DATE":"2022-05-06","REV_AT_EPOCH":"6302","MEAN_ANOMALY":"290.1067","SITE":"AFETR","NORAD_CAT_ID":"52466","CENTER_NAME":"EARTH","EPHEMERIS_TYPE":"0","GP_ID":"234518250"},{"MEAN_ANOMALY":"272.0092","OBJECT_ID":"2022-049S","LAUNCH_DATE":"2022-05-06","REV_AT_EPOCH":"6310","GP_ID":"234532496","CENTER_NAME":"EARTH","NORAD_CAT_ID":"52467","SITE":"AFETR","EPHEMERIS_TYPE":"0","ELEMENT_SET_NO":"999","PERIOD":"95.438","APOAPSIS":"540.489","COUNTRY_CODE":"US","SEMIMAJOR_AXIS":"6917.892","OBJECT_NAME":"STARLINK-3873","REF_FRAME":"TEME","INCLINATION":"53.2159","BSTAR":"0.00002001500000","TIME_SYSTEM":"UTC","DECAY_DATE":null,"MEAN_MOTION_DDOT":"0.0000000000000","TLE_LINE1":"1 52467U 22049S   23175.70073542  .00000031  00000-0  20015-4 0  9993","ECCENTRICITY":"0.00010580","ARG_OF_PERICENTER":"88.1021","RCS_SIZE":"LARGE","MEAN_ELEMENT_THEORY":"SGP4","FILE":"3941918","EPOCH":"2023-06-24T16:49:03.540288","PERIAPSIS":"539.025","OBJECT_TYPE":"PAYLOAD","RA_OF_ASC_NODE":"178.8654","TLE_LINE2":"2 52467  53.2159 178.8654 0001058  88.1021 272.0092 15.08836216 63106","MEAN_MOTION":"15.08836216","CLASSIFICATION_TYPE":"U","MEAN_MOTION_DOT":"0.00000031"},{"ECCENTRICITY":"0.00010250","MEAN_MOTION_DDOT":"0.0000000000000","TLE_LINE1":"1 52468U 22049T   23175.15609450  .00000307  00000-0  37398-4 0  9994","TIME_SYSTEM":"UTC","DECAY_DATE":null,"INCLINATION":"53.2158","BSTAR":"0.00003739800000","REF_FRAME":"TEME","MEAN_MOTION_DOT":"0.00000307","CLASSIFICATION_TYPE":"U","MEAN_MOTION":"15.08837599","RA_OF_ASC_NODE":"181.3067","TLE_LINE2":"2 52468  53.2158 181.3067 0001025  86.7455 273.3654 15.08837599 63026","OBJECT_TYPE":"PAYLOAD","FILE":"3941341","MEAN_ELEMENT_THEORY":"SGP4","PERIAPSIS":"539.044","EPOCH":"2023-06-24T03:44:46.564800","RCS_SIZE":"LARGE","ARG_OF_PERICENTER":"86.7455","EPHEMERIS_TYPE":"0","NORAD_CAT_ID":"52468","CENTER_NAME":"EARTH","SITE":"AFETR","GP_ID":"234518539","LAUNCH_DATE":"2022-05-06","REV_AT_EPOCH":"6302","OBJECT_ID":"2022-049T","MEAN_ANOMALY":"273.3654","OBJECT_NAME":"STARLINK-3864","SEMIMAJOR_AXIS":"6917.888","COUNTRY_CODE":"US","APOAPSIS":"540.462","ELEMENT_SET_NO":"999","PERIOD":"95.438"},{"EPOCH":"2023-06-24T03:55:22.438560","PERIAPSIS":"539.081","FILE":"3941341","MEAN_ELEMENT_THEORY":"SGP4","OBJECT_TYPE":"PAYLOAD","ARG_OF_PERICENTER":"85.4625","RCS_SIZE":"LARGE","CLASSIFICATION_TYPE":"U","MEAN_MOTION_DOT":"0.00000461","RA_OF_ASC_NODE":"181.2763","TLE_LINE2":"2 52469  53.2160 181.2763 0000957  85.4625 274.6476 15.08840797 63020","MEAN_MOTION":"15.08840797","REF_FRAME":"TEME","TLE_LINE1":"1 52469U 22049U   23175.16345415  .00000461  00000-0  47028-4 0  9996","MEAN_MOTION_DDOT":"0.0000000000000","ECCENTRICITY":"0.00009570","BSTAR":"0.00004702800000","INCLINATION":"53.2160","DECAY_DATE":null,"TIME_SYSTEM":"UTC","APOAPSIS":"540.405","COUNTRY_CODE":"US","PERIOD":"95.438","ELEMENT_SET_NO":"999","OBJECT_NAME":"STARLINK-3828","SEMIMAJOR_AXIS":"6917.878","OBJECT_ID":"2022-049U","REV_AT_EPOCH":"6302","LAUNCH_DATE":"2022-05-06","MEAN_ANOMALY":"274.6476","SITE":"AFETR","CENTER_NAME":"EARTH","NORAD_CAT_ID":"52469","EPHEMERIS_TYPE":"0","GP_ID":"234518247"}];
